[Satellite]
VERSION=1.1
NAME=STARLINK-5268
NICKNAME=STARLINK-5268
TLE1=1 54192U 22141AM  22321.58334491  .00062840  00000+0  44926-3 0  9995
TLE2=2 54192  53.2180  42.2255 0003019  13.8870 124.1927 15.73172988  1303
STATUS=0
